GEOSCAN 3 (RS92S3)      
1 64893U 25155T   26189.17349348  .00011778  00000+0  33638-3 0  9992
2 64893  97.4545 159.3059 0008590 105.4547 254.7646 15.36135058 84076
INNOSAT 3 (RS92S0)      
1 64894U 25155U   26189.17322128  .00027677  00000+0  57859-3 0  9996
2 64894  97.4491 161.1949 0008294 106.5121 253.7039 15.45423663 84209
KNACKSAT-2              
1 67683U 98067XZ  26187.43025761  .00050889  00000+0  57855-3 0  9994
2 67683  51.6265 197.5608 0008259 296.8985  63.1164 15.61755488 23280
