OBJECT_NAME,OBJECT_ID,EPOCH,MEAN_MOTION,ECCENTRICITY,INCLINATION,RA_OF_ASC_NODE,ARG_OF_PERICENTER,MEAN_ANOMALY,EPHEMERIS_TYPE,CLASSIFICATION_TYPE,NORAD_CAT_ID,ELEMENT_SET_NO,REV_AT_EPOCH,BSTAR,MEAN_MOTION_DOT,MEAN_MOTION_DDOT
GEOSCAN 3 (RS92S3),2025-155T,2026-07-08T04:09:49.836672,15.36135058,.000859,97.4545,159.3059,105.4547,254.7646,0,U,64893,999,8407,.33638E-3,.11778E-3,0
INNOSAT 3 (RS92S0),2025-155U,2026-07-08T04:09:26.318592,15.45423663,.0008294,97.4491,161.1949,106.5121,253.7039,0,U,64894,999,8420,.57859E-3,.27677E-3,0
KNACKSAT-2,1998-067XZ,2026-07-06T10:19:34.257504,15.61755488,.00082597,51.6265,197.5608,296.8985,63.1164,0,U,67683,999,2328,.57854596E-3,.50889E-3,0
